NORAD_CAT_ID,OBJECT_NAME,OBJECT_TYPE,EPOCH,MEAN_MOTION,ECCENTRICITY,INCLINATION,RA_OF_ASC_NODE,ARG_OF_PERICENTER,MEAN_ANOMALY,BSTAR,MEAN_MOTION_DOT,MEAN_MOTION_DDOT,TLE_LINE0,TLE_LINE1,TLE_LINE2,SEMIMAJOR_AXIS,PERIOD,APOGEE,PERIGEE,DECAYED
53559.0,STARLINK-4508,PAYLOAD,2022-10-14 14:00:01,15.39438193,0.0001143,53.2176,241.4639,81.7987,234.0897,-0.029391,-0.01073143,0.0,0 STARLINK-4508,1 53559U 22101AJ  22287.58334491 -.01073143  00000-0 -29391-1 0  9997,2 53559  53.2176 241.4639 0001143  81.7987 234.0897 15.39438193  1304,6825.906999999997,93.541,448.552,446.991,0.0
53559.0,STARLINK-4508,PAYLOAD,2022-10-14 18:00:00,15.39056561,0.0001302,53.2174,240.681,76.6985,83.2514,-0.029662,-0.01069799,0.0,0 STARLINK-4508,1 53559U 22101AJ  22287.75001157 -.01069799  00000-0 -29662-1 0  9999,2 53559  53.2174 240.6810 0001302  76.6985  83.2514 15.39056561  1307,6827.035,93.564,449.789,448.011,0.0
53559.0,STARLINK-4508,PAYLOAD,2022-10-15 06:00:00,15.3791788,0.000151,53.2177,238.33900000000003,44.1353,6.6255,-0.0308139999999999,-0.01070513,0.0,0 STARLINK-4508,1 53559U 22101AJ  22288.25001157 -.01070513  00000-0 -30814-1 0  9992,2 53559  53.2177 238.3390 0001510  44.1353   6.6255 15.37917880  8875,6830.404,93.633,453.301,451.23800000000006,0.0
53559.0,STARLINK-4508,PAYLOAD,2022-10-15 14:00:01,15.37157536,0.0001237,53.2176,236.7769,70.0991,26.7305,-0.031536,-0.0106881,0.0,0 STARLINK-4508,1 53559U 22101AJ  22288.58334491 -.01068810  00000-0 -31536-1 0  9997,2 53559  53.2176 236.7769 0001237  70.0991  26.7305 15.37157536  1302,6832.656999999997,93.679,455.367,453.676,0.0
53559.0,STARLINK-4508,PAYLOAD,2022-10-15 22:00:01,15.36397184,0.0001348,53.2179,235.2178,71.4102,70.6387,-0.0322649999999999,-0.01067012,0.0,0 STARLINK-4508,1 53559U 22101AJ  22288.91668981 -.01067012  00000-0 -32265-1 0  9991,2 53559  53.2179 235.2178 0001348  71.4102  70.6387 15.36397184  1307,6834.911,93.726,457.697,455.854,0.0
53559.0,STARLINK-4508,PAYLOAD,2022-10-16 06:00:00,15.35636374,0.0001501,53.2176,233.6627,60.7066,125.5197,-0.032989,-0.01064684,0.0,0 STARLINK-4508,1 53559U 22101AJ  22289.25001157 -.01064684  00000-0 -32989-1 0  9990,2 53559  53.2176 233.6627 0001501  60.7066 125.5197 15.35636374  9028,6837.168000000002,93.772,460.059,458.007,0.0
53559.0,STARLINK-4508,PAYLOAD,2022-10-16 14:00:01,15.34880074,0.0001304,53.2176,232.106,88.831,140.7247,-0.033986,-0.0106997999999999,0.0,0 STARLINK-4508,1 53559U 22101AJ  22289.58334491 -.01069980  00000-0 -33986-1 0  9998,2 53559  53.2176 232.1060 0001304  88.8310 140.7247 15.34880074  1302,6839.4140000000025,93.818,462.171,460.387,0.0
53559.0,STARLINK-4508,PAYLOAD,2022-10-16 22:00:00,15.34119177,0.0001277,53.2176,230.5526,92.3559,179.61700000000005,-0.0347209999999999,-0.01067061,0.0,0 STARLINK-4508,1 53559U 22101AJ  22289.91667824 -.01067061  00000-0 -34721-1 0  9990,2 53559  53.2176 230.5526 0001277  92.3559 179.6170 15.34119177  1300,6841.675,93.865,464.414,462.666,0.0
53559.0,STARLINK-4508,PAYLOAD,2022-10-17 06:00:00,15.33358621,0.0001204,53.2175,229.0027,78.2486,235.2279,-0.035514,-0.01065429,0.0,0 STARLINK-4508,1 53559U 22101AJ  22290.25001157 -.01065429  00000-0 -35514-1 0  9997,2 53559  53.2175 229.0027 0001204  78.2486 235.2279 15.33358621  9170,6843.937,93.911,466.626,464.978,0.0
53559.0,STARLINK-4508,PAYLOAD,2022-10-17 14:00:01,15.3260082,0.0001246,53.2175,227.4512,57.3532,296.7155,-0.036508,-0.01068945,0.0,0 STARLINK-4508,1 53559U 22101AJ  22290.58334491 -.01068945  00000-0 -36508-1 0  9993,2 53559  53.2175 227.4512 0001246  57.3532 296.7155 15.32600820  1309,6846.193,93.958,468.911,467.205,0.0
53559.0,STARLINK-4508,PAYLOAD,2022-10-17 22:00:00,15.31841659,0.0001315999999999,53.2176,225.9035,55.8034,337.9436,-0.037389,-0.0106885,0.0,0 STARLINK-4508,1 53559U 22101AJ  22290.91667824 -.01068850  00000-0 -37389-1 0  9992,2 53559  53.2176 225.9035 0001316  55.8034 337.9436 15.31841659  1307,6848.455,94.004,471.221,469.418,0.0
53559.0,STARLINK-4508,PAYLOAD,2022-10-18 14:00:01,15.30320168,0.0001249,53.2175,222.8127,75.2911,35.0769,-0.039056,-0.01064868,0.0,0 STARLINK-4508,1 53559U 22101AJ  22291.58334491 -.01064868  00000-0 -39056-1 0  9995,2 53559  53.2175 222.8127 0001249  75.2911  35.0769 15.30320168  1300,6852.993,94.098,475.714,474.002,0.0
53559.0,STARLINK-4508,PAYLOAD,2022-10-18 22:00:00,15.29561653,0.0001348,53.2176,221.2702,77.678,69.6303,-0.040048,-0.01066342,0.0,0 STARLINK-4508,1 53559U 22101AJ  22291.91667824 -.01066342  00000-0 -40048-1 0  9993,2 53559  53.2176 221.2702 0001348  77.6780  69.6303 15.29561653  1304,6855.259,94.145,478.048,476.2,0.0
53559.0,STARLINK-4508,PAYLOAD,2022-10-19 06:00:00,15.28806312,0.0001337,53.2174,219.73,91.5783,91.7556,-0.041184,-0.01070837,0.0,0 STARLINK-4508,1 53559U 22101AJ  22292.25001157 -.01070837  00000-0 -41184-1 0  9998,2 53559  53.2174 219.7300 0001337  91.5783  91.7556 15.28806312  9480,6857.517,94.191,480.298,478.465,0.0
53559.0,STARLINK-4508,PAYLOAD,2022-10-19 14:00:01,15.28041369,0.0001358,53.2175,218.1902,101.6316,116.8211,-0.04186,-0.01063693,0.0,0 STARLINK-4508,1 53559U 22101AJ  22292.58334491 -.01063693  00000-0 -41860-1 0  9997,2 53559  53.2175 218.1902 0001358 101.6316 116.8211 15.28041369  1303,6859.805,94.238,482.602,480.73800000000006,0.0
53559.0,STARLINK-4508,PAYLOAD,2022-10-19 22:00:00,15.2728217,0.0001356,53.2175,216.6535,76.3769,176.2781,-0.042866,-0.01064142,0.0,0 STARLINK-4508,1 53559U 22101AJ  22292.91667824 -.01064142  00000-0 -42866-1 0  9990,2 53559  53.2175 216.6535 0001356  76.3769 176.2781 15.27282170  1304,6862.078,94.285,484.874,483.013,0.0
53559.0,STARLINK-4508,PAYLOAD,2022-10-20 06:00:00,15.26520677,0.0001291,53.2173,215.1193,70.3819,215.5631,-0.043696,-0.01060157,0.0,0 STARLINK-4508,1 53559U 22101AJ  22293.25001157 -.01060157  00000-0 -43696-1 0  9993,2 53559  53.2173 215.1193 0001291  70.3819 215.5631 15.26520677  9635,6864.36,94.332,487.111,485.339,0.0
53559.0,STARLINK-4508,PAYLOAD,2022-10-20 14:00:01,15.257622,0.0001179,53.2175,213.5838,96.4541,221.8695,-0.04483,-0.01062638,0.0,0 STARLINK-4508,1 53559U 22101AJ  22293.58334491 -.01062638  00000-0 -44830-1 0  9996,2 53559  53.2175 213.5838 0001179  96.4541 221.8695 15.25762200  1306,6866.635,94.379,489.309,487.69,0.0
53559.0,STARLINK-4508,PAYLOAD,2022-10-20 22:00:00,15.25004425,0.0001177999999999,53.2175,212.0525,92.6188,257.1686,-0.045985,-0.01065089,0.0,0 STARLINK-4508,1 53559U 22101AJ  22293.91667824 -.01065089  00000-0 -45985-1 0  9997,2 53559  53.2175 212.0525 0001178  92.6188 257.1686 15.25004425  1307,6868.909000000002,94.426,491.583,489.965,0.0
53559.0,STARLINK-4508,PAYLOAD,2022-10-21 14:00:01,15.23483262,0.0001182,53.2174,208.9934,71.4891,338.4914,-0.04798,-0.01061925,0.0,0 STARLINK-4508,1 53559U 22101AJ  22294.58334491 -.01061925  00000-0 -47980-1 0  9994,2 53559  53.2174 208.9934 0001182  71.4891 338.4914 15.23483262  1300,6873.481,94.52,496.158,494.533,0.0
53559.0,STARLINK-4508,PAYLOAD,2022-10-21 22:00:00,15.22740767,0.0001351999999999,53.2175,207.4661,73.0233,5.6769,-0.050282,-0.01086272,0.0,0 STARLINK-4508,1 53559U 22101AJ  22294.91667824 -.01086272  00000-0 -50282-1 0  9991,2 53559  53.2175 207.4661 0001352  73.0233   5.6769 15.22740767  9897,6875.715,94.566,498.509,496.65,0.0
53559.0,STARLINK-4508,PAYLOAD,2022-10-22 14:00:01,15.21207073,0.0001305,53.2177,204.4184,74.4517,58.9711,-0.05151,-0.01065216,0.0,0 STARLINK-4508,1 53559U 22101AJ  22295.58334491 -.01065216  00000-0 -51510-1 0  9996,2 53559  53.2177 204.4184 0001305  74.4517  58.9711 15.21207073  1307,6880.3359999999975,94.662,503.098,501.30300000000005,0.0
53559.0,STARLINK-4508,PAYLOAD,2022-10-22 22:00:00,15.20464822,0.0001359,53.2178,202.8969,82.6822,76.7213,-0.053923,-0.01102889,0.0,0 STARLINK-4508,1 53559U 22101AJ  22295.91667824 -.01102889  00000-0 -53923-1 0  9990,2 53559  53.2178 202.8969 0001359  82.6822  76.7213 15.20464822  1301,6882.575,94.708,505.375,503.504,0.0
53559.0,STARLINK-4508,PAYLOAD,2022-10-23 06:00:00,15.19701735,0.0001418,53.2176,201.379,73.2218,111.2582,-0.054801,-0.0109657,0.0,0 STARLINK-4508,1 53559U 22101AJ  22296.25001157 -.01096570  00000-0 -54801-1 0  9994,2 53559  53.2176 201.3790 0001418  73.2218 111.2582 15.19701735 10091,6884.878000000002,94.755,507.72,505.767,0.0
53559.0,STARLINK-4508,PAYLOAD,2022-10-23 14:00:01,15.1892649,0.0001328,53.2176,199.8603,76.8883,131.7639,-0.054888,-0.01061939,0.0,0 STARLINK-4508,1 53559U 22101AJ  22296.58334491 -.01061939  00000-0 -54888-1 0  9996,2 53559  53.2176 199.8603 0001328  76.8883 131.7639 15.18926490  1302,6887.221,94.804,510.0,508.171,0.0
53559.0,STARLINK-4508,PAYLOAD,2022-10-23 22:00:00,15.18187221,0.000133,53.2179,198.3442,79.9413,151.9521,-0.057658,-0.0110341,0.0,0 STARLINK-4508,1 53559U 22101AJ  22296.91667824 -.01103410  00000-0 -57658-1 0  9991,2 53559  53.2179 198.3442 0001330  79.9413 151.9521 15.18187221  1301,6889.456,94.85,512.238,510.405,0.0
53559.0,STARLINK-4508,PAYLOAD,2022-10-24 14:00:01,15.16645957,0.0001288,53.2176,195.3179,78.0038,197.664,-0.058427,-0.01071909,0.0,0 STARLINK-4508,1 53559U 22101AJ  22297.58334491 -.01071909  00000-0 -58427-1 0  9998,2 53559  53.2176 195.3179 0001288  78.0038 197.6640 15.16645957  1309,6894.123000000001,94.946,516.876,515.1,0.0
53559.0,STARLINK-4508,PAYLOAD,2022-10-24 22:00:00,15.15895996,0.0001235,53.2179,193.8078,82.0687,214.1072,-0.060502,-0.010853,0.0,0 STARLINK-4508,1 53559U 22101AJ  22297.91667824 -.01085300  00000-0 -60502-1 0  9991,2 53559  53.2179 193.8078 0001235  82.0687 214.1072 15.15895996  1303,6896.397,94.993,519.113,517.41,0.0
53559.0,STARLINK-4508,PAYLOAD,2022-10-25 14:00:01,15.143662,0.0001264,53.2178,190.7915,69.5577,264.9111,-0.062223,-0.01069775,0.0,0 STARLINK-4508,1 53559U 22101AJ  22298.58334491 -.01069775  00000-0 -62223-1 0  9996,2 53559  53.2178 190.7915 0001264  69.5577 264.9111 15.14366200 10451,6901.04,95.089,523.778,522.033,0.0
